IRIDIUM 126             
1 42809U 17039G   24246.60368510 -.00000024  00000+0 -15730-4 0  9997
2 42809  86.3913 266.3259 0002113  87.6252 272.5185 14.34216429376412
IRIDIUM 124             
1 42810U 17039H   24246.57986288  .00001329  00000+0  38916-3 0  9990
2 42810  86.4536 203.0971 0002093  87.6487 272.4953 14.43279977380988
IRIDIUM 128             
1 42811U 17039J   24246.87349843  .00000722  00000+0  25076-3 0  9993
2 42811  86.3948 297.7617 0001993  90.6152 269.5272 14.34218121376488
IRIDIUM 121             
1 42812U 17039K   24246.76225365  .00000318  00000+0  10654-3 0  9991
2 42812  86.3912 266.2828 0002200  91.3117 268.8331 14.34218524376436
IRIDIUM 133             
1 42955U 17061A   24246.62613857  .00000532  00000+0  18279-3 0  9995
2 42955  86.3950 297.9667 0002310  92.7357 267.4104 14.34216429361249
IRIDIUM 100             
1 42956U 17061B   24246.68956699  .00000886  00000+0  30914-3 0  9998
2 42956  86.3948 297.8738 0002113  94.0683 266.0754 14.34215991361275
IRIDIUM 122             
1 42957U 17061C   24246.86715711  .00000045  00000+0  90782-5 0  9995
2 42957  86.3950 297.7984 0002112  87.8435 272.3002 14.34216450361283
IRIDIUM 129             
1 42958U 17061D   24246.61345352  .00000269  00000+0  89041-4 0  9992
2 42958  86.3952 297.9648 0002415  88.7864 271.3608 14.34215775361265
